{"type": "FeatureCollection", "features": [ {"type": "Feature", "properties": {"norad_id": 36028, "name": "IRIDIUM 33 DEB", "group": "iridium-33-debris", "lat": -0.605332272364252, "lon": 132.1774686345041, "alt_km": 588.4598143663807, "timestamp": "2025-12-01T03:58:49.184484+00:00", "meta": {"OBJECT_NAME": "IRIDIUM 33 DEB", "OBJECT_ID": "1997-051VK", "EPOCH": "2025-11-29T06:10:41.958912", "MEAN_MOTION": 14.94316678, "ECCENTRICITY": 0.00220262, "INCLINATION": 86.3221, "RA_OF_ASC_NODE": 313.0345, "ARG_OF_PERICENTER": 93.3767, "MEAN_ANOMALY": 266.9982, "EPHEMERIS_TYPE": 0, "CLASSIFICATION_TYPE": "U", "NORAD_CAT_ID": 36028, "ELEMENT_SET_NO": 999, "REV_AT_EPOCH": 86923, "BSTAR": 0.0021147793, "MEAN_MOTION_DOT": 0.000229, "MEAN_MOTION_DDOT": 0, "GROUP": "iridium-33-debris"}, "tle": {"line1": "1 36028U 97051VK  25333.25743008  .00022900  00000+0  21148-2 0  9996", "line2": "2 36028  86.3221 313.0345 0022026  93.3767 266.9982 14.94316678869238"}}, "geometry": {"type": "Point", "coordinates": [132.1774686345041, -0.605332272364252]}}, {"type": "Feature", "properties": {"norad_id": 36080, "name": "IRIDIUM 33 DEB", "group": "iridium-33-debris", "lat": -67.30018917355281, "lon": -158.12270424869587, "alt_km": 737.153896353926, "timestamp": "2025-12-01T03:58:49.184495+00:00", "meta": {"OBJECT_NAME": "IRIDIUM 33 DEB", "OBJECT_ID": "1997-051VM", "EPOCH": "2025-11-30T20:11:56.293728", "MEAN_MOTION": 14.46521856, "ECCENTRICITY": 0.0017024, "INCLINATION": 86.3209, "RA_OF_ASC_NODE": 13.1702, "ARG_OF_PERICENTER": 195.0829, "MEAN_ANOMALY": 164.9869, "EPHEMERIS_TYPE": 0, "CLASSIFICATION_TYPE": "U", "NORAD_CAT_ID": 36080, "ELEMENT_SET_NO": 999, "REV_AT_EPOCH": 47242, "BSTAR": 0.00064307, "MEAN_MOTION_DOT": 2.338e-05, "MEAN_MOTION_DDOT": 0, "GROUP": "iridium-33-debris"}, "tle": {"line1": "1 36080U 97051VM  25334.84162377  .00002338  00000+0  64307-3 0  9992", "line2": "2 36080  86.3209  13.1702 0017024 195.0829 164.9869 14.46521856472423"}}, "geometry": {"type": "Point", "coordinates": [-158.12270424869587, -67.30018917355281]}}, {"type": "Feature", "properties": {"norad_id": 36083, "name": "IRIDIUM 33 DEB", "group": "iridium-33-debris", "lat": 59.25936384557627, "lon": -147.03521443977604, "alt_km": 756.499984858634, "timestamp": "2025-12-01T03:58:49.184505+00:00", "meta": {"OBJECT_NAME": "IRIDIUM 33 DEB", "OBJECT_ID": "1997-051VQ", "EPOCH": "2025-11-30T10:46:50.880000", "MEAN_MOTION": 14.43133955, "ECCENTRICITY": 0.00245074, "INCLINATION": 86.345, "RA_OF_ASC_NODE": 39.4431, "ARG_OF_PERICENTER": 266.1752, "MEAN_ANOMALY": 93.6646, "EPHEMERIS_TYPE": 0, "CLASSIFICATION_TYPE": "U", "NORAD_CAT_ID": 36083, "ELEMENT_SET_NO": 999, "REV_AT_EPOCH": 85272, "BSTAR": 0.00060468289, "MEAN_MOTION_DOT": 2.056e-05, "MEAN_MOTION_DDOT": 0, "GROUP": "iridium-33-debris"}, "tle": {"line1": "1 36083U 97051VQ  25334.44920000  .00002056  00000+0  60468-3 0  9997", "line2": "2 36083  86.3450  39.4431 0024507 266.1752  93.6646 14.43133955852725"}}, "geometry": {"type": "Point", "coordinates": [-147.03521443977604, 59.25936384557627]}}, {"type": "Feature", "properties": {"norad_id": 36390, "name": "IRIDIUM 33 DEB", "group": "iridium-33-debris", "lat": 61.70266898538004, "lon": 117.77281853669417, "alt_km": 642.5846446226715, "timestamp": "2025-12-01T03:58:49.184515+00:00", "meta": {"OBJECT_NAME": "IRIDIUM 33 DEB", "OBJECT_ID": "1997-051VU", "EPOCH": "2025-11-30T04:37:26.668128", "MEAN_MOTION": 14.73329322, "ECCENTRICITY": 0.00285998, "INCLINATION": 86.289, "RA_OF_ASC_NODE": 305.1428, "ARG_OF_PERICENTER": 206.0853, "MEAN_ANOMALY": 153.8925, "EPHEMERIS_TYPE": 0, "CLASSIFICATION_TYPE": "U", "NORAD_CAT_ID": 36390, "ELEMENT_SET_NO": 999, "REV_AT_EPOCH": 66077, "BSTAR": 0.001268982, "MEAN_MOTION_DOT": 8.29e-05, "MEAN_MOTION_DDOT": 0, "GROUP": "iridium-33-debris"}, "tle": {"line1": "1 36390U 97051VU  25334.19266977  .00008290  00000+0  12690-2 0  9995", "line2": "2 36390  86.2890 305.1428 0028599 206.0853 153.8925 14.73329322660771"}}, "geometry": {"type": "Point", "coordinates": [117.77281853669417, 61.70266898538004]}}, {"type": "Feature", "properties": {"norad_id": 36483, "name": "IRIDIUM 33 DEB", "group": "iridium-33-debris", "lat": 3.945883857298501, "lon": -122.80687400137313, "alt_km": 735.851077752347, "timestamp": "2025-12-01T03:58:49.184526+00:00", "meta": {"OBJECT_NAME": "IRIDIUM 33 DEB", "OBJECT_ID": "1997-051VZ", "EPOCH": "2025-11-22T13:11:17.919744", "MEAN_MOTION": 14.45699989, "ECCENTRICITY": 0.0009342, "INCLINATION": 86.3802, "RA_OF_ASC_NODE": 61.1291, "ARG_OF_PERICENTER": 185.7965, "MEAN_ANOMALY": 174.3131, "EPHEMERIS_TYPE": 0, "CLASSIFICATION_TYPE": "U", "NORAD_CAT_ID": 36483, "ELEMENT_SET_NO": 999, "REV_AT_EPOCH": 64854, "BSTAR": 0.0005707, "MEAN_MOTION_DOT": 2.04e-05, "MEAN_MOTION_DDOT": 0, "GROUP": "iridium-33-debris"}, "tle": {"line1": "1 36483U 97051VZ  25326.54951296  .00002040  00000+0  57070-3 0  9992", "line2": "2 36483  86.3802  61.1291 0009342 185.7965 174.3131 14.45699989648543"}}, "geometry": {"type": "Point", "coordinates": [-122.80687400137313, 3.945883857298501]}}, {"type": "Feature", "properties": {"norad_id": 36490, "name": "IRIDIUM 33 DEB", "group": "iridium-33-debris", "lat": -75.13176426902164, "lon": -150.4681724715268, "alt_km": 653.2828183035281, "timestamp": "2025-12-01T03:58:49.184536+00:00", "meta": {"OBJECT_NAME": "IRIDIUM 33 DEB", "OBJECT_ID": "1997-051WG", "EPOCH": "2025-11-30T20:19:01.149312", "MEAN_MOTION": 14.75798631, "ECCENTRICITY": 0.0005562, "INCLINATION": 86.3661, "RA_OF_ASC_NODE": 15.8259, "ARG_OF_PERICENTER": 109.7854, "MEAN_ANOMALY": 250.3965, "EPHEMERIS_TYPE": 0, "CLASSIFICATION_TYPE": "U", "NORAD_CAT_ID": 36490, "ELEMENT_SET_NO": 999, "REV_AT_EPOCH": 86309, "BSTAR": 0.0016181, "MEAN_MOTION_DOT": 0.00011119, "MEAN_MOTION_DDOT": 0, "GROUP": "iridium-33-debris"}, "tle": {"line1": "1 36490U 97051WG  25334.84654108  .00011119  00000+0  16181-2 0  9998", "line2": "2 36490  86.3661  15.8259 0005562 109.7854 250.3965 14.75798631863093"}}, "geometry": {"type": "Point", "coordinates": [-150.4681724715268, -75.13176426902164]}}, {"type": "Feature", "properties": {"norad_id": 36493, "name": "IRIDIUM 33 DEB", "group": "iridium-33-debris", "lat": -86.25444604538336, "lon": -59.7489197932996, "alt_km": 689.9934476193093, "timestamp": "2025-12-01T03:58:49.184546+00:00", "meta": {"OBJECT_NAME": "IRIDIUM 33 DEB", "OBJECT_ID": "1997-051WK", "EPOCH": "2025-11-29T09:45:52.591680", "MEAN_MOTION": 14.64969461, "ECCENTRICITY": 0.00117036, "INCLINATION": 86.359, "RA_OF_ASC_NODE": 17.6018, "ARG_OF_PERICENTER": 48.0633, "MEAN_ANOMALY": 312.1576, "EPHEMERIS_TYPE": 0, "CLASSIFICATION_TYPE": "U", "NORAD_CAT_ID": 36493, "ELEMENT_SET_NO": 999, "REV_AT_EPOCH": 74323, "BSTAR": 0.0011558423, "MEAN_MOTION_DOT": 6.216e-05, "MEAN_MOTION_DDOT": 0, "GROUP": "iridium-33-debris"}, "tle": {"line1": "1 36493U 97051WK  25333.40685870  .00006216  00000+0  11558-2 0  9997", "line2": "2 36493  86.3590  17.6018 0011703  48.0633 312.1576 14.64969461743231"}}, "geometry": {"type": "Point", "coordinates": [-59.7489197932996, -86.25444604538336]}}, {"type": "Feature", "properties": {"norad_id": 37548, "name": "IRIDIUM 33 DEB", "group": "iridium-33-debris", "lat": -43.71689836545504, "lon": 44.90628248899772, "alt_km": 727.9402851809373, "timestamp": "2025-12-01T03:58:49.184556+00:00", "meta": {"OBJECT_NAME": "IRIDIUM 33 DEB", "OBJECT_ID": "1997-051XH", "EPOCH": "2025-11-29T22:23:36.250944", "MEAN_MOTION": 14.5113469, "ECCENTRICITY": 0.00243457, "INCLINATION": 86.3524, "RA_OF_ASC_NODE": 48.9393, "ARG_OF_PERICENTER": 232.6782, "MEAN_ANOMALY": 127.2204, "EPHEMERIS_TYPE": 0, "CLASSIFICATION_TYPE": "U", "NORAD_CAT_ID": 37548, "ELEMENT_SET_NO": 999, "REV_AT_EPOCH": 65346, "BSTAR": 0.0012745087, "MEAN_MOTION_DOT": 5.093e-05, "MEAN_MOTION_DDOT": 0, "GROUP": "iridium-33-debris"}, "tle": {"line1": "1 37548U 97051XH  25333.93305846  .00005093  00000+0  12745-2 0  9990", "line2": "2 37548  86.3524  48.9393 0024345 232.6782 127.2204 14.51134690653467"}}, "geometry": {"type": "Point", "coordinates": [44.90628248899772, -43.71689836545504]}}, {"type": "Feature", "properties": {"norad_id": 37550, "name": "IRIDIUM 33 DEB", "group": "iridium-33-debris", "lat": 51.850442173367014, "lon": 33.62727668157272, "alt_km": 665.7296135084162, "timestamp": "2025-12-01T03:58:49.184566+00:00", "meta": {"OBJECT_NAME": "IRIDIUM 33 DEB", "OBJECT_ID": "1997-051XK", "EPOCH": "2025-11-28T21:43:06.813408", "MEAN_MOTION": 14.66913784, "ECCENTRICITY": 0.00049288, "INCLINATION": 86.3784, "RA_OF_ASC_NODE": 30.0035, "ARG_OF_PERICENTER": 143.5014, "MEAN_ANOMALY": 216.6537, "EPHEMERIS_TYPE": 0, "CLASSIFICATION_TYPE": "U", "NORAD_CAT_ID": 37550, "ELEMENT_SET_NO": 999, "REV_AT_EPOCH": 86130, "BSTAR": 0.0013638028, "MEAN_MOTION_DOT": 7.65e-05, "MEAN_MOTION_DDOT": 0, "GROUP": "iridium-33-debris"}, "tle": {"line1": "1 37550U 97051XK  25332.90493997  .00007650  00000+0  13638-2 0  9997", "line2": "2 37550  86.3784  30.0035 0004928 143.5014 216.6537 14.66913784861307"}}, "geometry": {"type": "Point", "coordinates": [33.62727668157272, 51.850442173367014]}}]}